[{"OBJECT_NAME":"GPS BIIR-2  (PRN 13)","OBJECT_ID":"1997-035A","EPOCH":"2026-03-28T10:21:38.212128","MEAN_MOTION":2.00563873,"ECCENTRICITY":0.0098722,"INCLINATION":55.95,"RA_OF_ASC_NODE":101.7308,"ARG_OF_PERICENTER":56.1329,"MEAN_ANOMALY":304.8527,"EPHEMERIS_TYPE":0,"CLASSIFICATION_TYPE":"U","NORAD_CAT_ID":24876,"ELEMENT_SET_NO":999,"REV_AT_EPOCH":21033,"BSTAR":0,"MEAN_MOTION_DOT":5.1e-7,"MEAN_MOTION_DDOT":0},{"OBJECT_NAME":"GPS BIIR-5  (PRN 22)","OBJECT_ID":"2000-040A","EPOCH":"2026-03-28T12:46:25.008096","MEAN_MOTION":2.00569122,"ECCENTRICITY":0.01222239,"INCLINATION":54.8698,"RA_OF_ASC_NODE":218.3638,"ARG_OF_PERICENTER":302.5125,"MEAN_ANOMALY":64.7596,"EPHEMERIS_TYPE":0,"CLASSIFICATION_TYPE":"U","NORAD_CAT_ID":26407,"ELEMENT_SET_NO":999,"REV_AT_EPOCH":18833,"BSTAR":0,"MEAN_MOTION_DOT":-3.4e-7,"MEAN_MOTION_DDOT":0},{"OBJECT_NAME":"GPS BIIR-8  (PRN 16)","OBJECT_ID":"2003-005A","EPOCH":"2026-03-28T01:59:04.025472","MEAN_MOTION":2.00564876,"ECCENTRICITY":0.01485309,"INCLINATION":54.901,"RA_OF_ASC_NODE":218.1895,"ARG_OF_PERICENTER":52.8576,"MEAN_ANOMALY":125.4188,"EPHEMERIS_TYPE":0,"CLASSIFICATION_TYPE":"U","NORAD_CAT_ID":27663,"ELEMENT_SET_NO":999,"REV_AT_EPOCH":16968,"BSTAR":0,"MEAN_MOTION_DOT":-2.9e-7,"MEAN_MOTION_DDOT":0},{"OBJECT_NAME":"GPS BIIR-11 (PRN 19)","OBJECT_ID":"2004-009A","EPOCH":"2026-03-28T08:46:59.974752","MEAN_MOTION":2.00557238,"ECCENTRICITY":0.01121577,"INCLINATION":54.8974,"RA_OF_ASC_NODE":278.9506,"ARG_OF_PERICENTER":169.767,"MEAN_ANOMALY":8.2543,"EPHEMERIS_TYPE":0,"CLASSIFICATION_TYPE":"U","NORAD_CAT_ID":28190,"ELEMENT_SET_NO":999,"REV_AT_EPOCH":16132,"BSTAR":0,"MEAN_MOTION_DOT":-1.0e-8,"MEAN_MOTION_DDOT":0},{"OBJECT_NAME":"GPS BIIR-13 (PRN 02)","OBJECT_ID":"2004-045A","EPOCH":"2026-03-26T07:19:28.719264","MEAN_MOTION":2.00574367,"ECCENTRICITY":0.0170517,"INCLINATION":55.1822,"RA_OF_ASC_NODE":328.236,"ARG_OF_PERICENTER":313.6726,"MEAN_ANOMALY":241.0281,"EPHEMERIS_TYPE":0,"CLASSIFICATION_TYPE":"U","NORAD_CAT_ID":28474,"ELEMENT_SET_NO":999,"REV_AT_EPOCH":15676,"BSTAR":0,"MEAN_MOTION_DOT":-7.3e-7,"MEAN_MOTION_DDOT":0},{"OBJECT_NAME":"GPS BIIRM-1 (PRN 17)","OBJECT_ID":"2005-038A","EPOCH":"2026-03-28T08:49:44.273856","MEAN_MOTION":2.00571249,"ECCENTRICITY":0.012819,"INCLINATION":54.9447,"RA_OF_ASC_NODE":276.4371,"ARG_OF_PERICENTER":295.6323,"MEAN_ANOMALY":268.7932,"EPHEMERIS_TYPE":0,"CLASSIFICATION_TYPE":"U","NORAD_CAT_ID":28874,"ELEMENT_SET_NO":999,"REV_AT_EPOCH":15021,"BSTAR":0,"MEAN_MOTION_DOT":0,"MEAN_MOTION_DDOT":0},{"OBJECT_NAME":"INMARSAT 4-F2 (SOUTHPAN/PRN 122)","OBJECT_ID":"2005-044A","EPOCH":"2026-03-28T13:25:51.619008","MEAN_MOTION":1.00271063,"ECCENTRICITY":0.0002935,"INCLINATION":4.991,"RA_OF_ASC_NODE":43.7951,"ARG_OF_PERICENTER":337.4395,"MEAN_ANOMALY":149.6921,"EPHEMERIS_TYPE":0,"CLASSIFICATION_TYPE":"U","NORAD_CAT_ID":28899,"ELEMENT_SET_NO":999,"REV_AT_EPOCH":7471,"BSTAR":0,"MEAN_MOTION_DOT":-2.76e-6,"MEAN_MOTION_DDOT":0},{"OBJECT_NAME":"GPS BIIRM-2 (PRN 31)","OBJECT_ID":"2006-042A","EPOCH":"2026-03-28T23:06:47.273760","MEAN_MOTION":2.00574181,"ECCENTRICITY":0.01063596,"INCLINATION":54.6992,"RA_OF_ASC_NODE":154.5249,"ARG_OF_PERICENTER":53.1327,"MEAN_ANOMALY":118.3397,"EPHEMERIS_TYPE":0,"CLASSIFICATION_TYPE":"U","NORAD_CAT_ID":29486,"ELEMENT_SET_NO":999,"REV_AT_EPOCH":14278,"BSTAR":0,"MEAN_MOTION_DOT":2.0e-8,"MEAN_MOTION_DDOT":0},{"OBJECT_NAME":"GPS BIIRM-3 (PRN 12)","OBJECT_ID":"2006-052A","EPOCH":"2026-03-28T15:29:30.146784","MEAN_MOTION":2.00553221,"ECCENTRICITY":0.0087291,"INCLINATION":54.9511,"RA_OF_ASC_NODE":217.1971,"ARG_OF_PERICENTER":89.8188,"MEAN_ANOMALY":271.1436,"EPHEMERIS_TYPE":0,"CLASSIFICATION_TYPE":"U","NORAD_CAT_ID":29601,"ELEMENT_SET_NO":999,"REV_AT_EPOCH":14179,"BSTAR":0,"MEAN_MOTION_DOT":-3.6e-7,"MEAN_MOTION_DDOT":0},{"OBJECT_NAME":"GPS BIIRM-4 (PRN 15)","OBJECT_ID":"2007-047A","EPOCH":"2026-03-27T22:53:56.037120","MEAN_MOTION":2.00559397,"ECCENTRICITY":0.01639682,"INCLINATION":54.0351,"RA_OF_ASC_NODE":83.4118,"ARG_OF_PERICENTER":86.1575,"MEAN_ANOMALY":275.7399,"EPHEMERIS_TYPE":0,"CLASSIFICATION_TYPE":"U","NORAD_CAT_ID":32260,"ELEMENT_SET_NO":999,"REV_AT_EPOCH":13518,"BSTAR":0,"MEAN_MOTION_DOT":2.6e-7,"MEAN_MOTION_DDOT":0},{"OBJECT_NAME":"COSMOS 2433 (720)","OBJECT_ID":"2007-052A","EPOCH":"2026-03-28T04:52:50.813760","MEAN_MOTION":2.13103881,"ECCENTRICITY":0.0001116,"INCLINATION":65.6216,"RA_OF_ASC_NODE":318.6607,"ARG_OF_PERICENTER":260.7324,"MEAN_ANOMALY":99.3104,"EPHEMERIS_TYPE":0,"CLASSIFICATION_TYPE":"U","NORAD_CAT_ID":32275,"ELEMENT_SET_NO":999,"REV_AT_EPOCH":14333,"BSTAR":0,"MEAN_MOTION_DOT":-3.0e-7,"MEAN_MOTION_DDOT":0},{"OBJECT_NAME":"COSMOS 2432 (719)","OBJECT_ID":"2007-052B","EPOCH":"2026-03-27T13:39:24.382080","MEAN_MOTION":2.13103077,"ECCENTRICITY":0.0009989,"INCLINATION":65.6372,"RA_OF_ASC_NODE":318.8082,"ARG_OF_PERICENTER":334.8511,"MEAN_ANOMALY":202.7099,"EPHEMERIS_TYPE":0,"CLASSIFICATION_TYPE":"U","NORAD_CAT_ID":32276,"ELEMENT_SET_NO":999,"REV_AT_EPOCH":14334,"BSTAR":0,"MEAN_MOTION_DOT":-3.1e-7,"MEAN_MOTION_DDOT":0},{"OBJECT_NAME":"GPS BIIRM-5 (PRN 29)","OBJECT_ID":"2007-062A","EPOCH":"2026-03-28T06:21:38.693088","MEAN_MOTION":2.00554962,"ECCENTRICITY":0.0033697,"INCLINATION":55.097,"RA_OF_ASC_NODE":277.4035,"ARG_OF_PERICENTER":161.1024,"MEAN_ANOMALY":190.8547,"EPHEMERIS_TYPE":0,"CLASSIFICATION_TYPE":"U","NORAD_CAT_ID":32384,"ELEMENT_SET_NO":999,"REV_AT_EPOCH":13388,"BSTAR":0,"MEAN_MOTION_DOT":1.0e-8,"MEAN_MOTION_DDOT":0},{"OBJECT_NAME":"COSMOS 2434 (721)","OBJECT_ID":"2007-065A","EPOCH":"2026-03-26T11:38:23.561088","MEAN_MOTION":2.13101314,"ECCENTRICITY":0.00030088,"INCLINATION":64.3174,"RA_OF_ASC_NODE":194.7028,"ARG_OF_PERICENTER":65.629,"MEAN_ANOMALY":306.3532,"EPHEMERIS_TYPE":0,"CLASSIFICATION_TYPE":"U","NORAD_CAT_ID":32393,"ELEMENT_SET_NO":999,"REV_AT_EPOCH":14201,"BSTAR":0,"MEAN_MOTION_DOT":-1.6e-7,"MEAN_MOTION_DDOT":0},{"OBJECT_NAME":"COSMOS 2436 (723)","OBJECT_ID":"2007-065C","EPOCH":"2026-03-26T07:22:42.054816","MEAN_MOTION":2.13100149,"ECCENTRICITY":0.0017338,"INCLINATION":64.326,"RA_OF_ASC_NODE":194.7801,"ARG_OF_PERICENTER":4.3123,"MEAN_ANOMALY":4.1011,"EPHEMERIS_TYPE":0,"CLASSIFICATION_TYPE":"U","NORAD_CAT_ID":32395,"ELEMENT_SET_NO":999,"REV_AT_EPOCH":14196,"BSTAR":0,"MEAN_MOTION_DOT":-1.3e-7,"MEAN_MOTION_DDOT":0},{"OBJECT_NAME":"GPS BIIRM-6 (PRN 07)","OBJECT_ID":"2008-012A","EPOCH":"2026-03-27T08:56:45.660480","MEAN_MOTION":2.00569963,"ECCENTRICITY":0.0208278,"INCLINATION":54.4839,"RA_OF_ASC_NODE":153.1942,"ARG_OF_PERICENTER":246.5928,"MEAN_ANOMALY":111.2592,"EPHEMERIS_TYPE":0,"CLASSIFICATION_TYPE":"U","NORAD_CAT_ID":32711,"ELEMENT_SET_NO":999,"REV_AT_EPOCH":13211,"BSTAR":0,"MEAN_MOTION_DOT":-9.0e-8,"MEAN_MOTION_DDOT":0},{"OBJECT_NAME":"GPS BIIRM-8 (PRN 05)","OBJECT_ID":"2009-043A","EPOCH":"2026-03-28T14:03:42.477120","MEAN_MOTION":2.00558801,"ECCENTRICITY":0.0052264,"INCLINATION":56.1631,"RA_OF_ASC_NODE":30.6179,"ARG_OF_PERICENTER":80.8092,"MEAN_ANOMALY":90.0384,"EPHEMERIS_TYPE":0,"CLASSIFICATION_TYPE":"U","NORAD_CAT_ID":35752,"ELEMENT_SET_NO":999,"REV_AT_EPOCH":12174,"BSTAR":0,"MEAN_MOTION_DOT":-8.5e-7,"MEAN_MOTION_DDOT":0}]
